{"type": "FeatureCollection", "features": [ {"type": "Feature", "properties": {"norad_id": 34529, "name": "IRIDIUM 33 DEB", "group": "iridium-33-debris", "lat": 55.26730935898562, "lon": -148.39250885719693, "alt_km": 749.9963269002646, "timestamp": "2025-12-09T07:41:33.595763+00:00", "meta": {"OBJECT_NAME": "IRIDIUM 33 DEB", "OBJECT_ID": "1997-051HW", "EPOCH": "2025-12-08T04:26:38.874624", "MEAN_MOTION": 14.40610073, "ECCENTRICITY": 0.00042345, "INCLINATION": 86.3644, "RA_OF_ASC_NODE": 37.3532, "ARG_OF_PERICENTER": 192.5106, "MEAN_ANOMALY": 167.5989, "EPHEMERIS_TYPE": 0, "CLASSIFICATION_TYPE": "U", "NORAD_CAT_ID": 34529, "ELEMENT_SET_NO": 999, "REV_AT_EPOCH": 88076, "BSTAR": 0.00018799813, "MEAN_MOTION_DOT": 6.19e-06, "MEAN_MOTION_DDOT": 0}, "tle": {"line1": "1 34529U 97051HW  25342.18517216  .00000619  00000+0  18800-3 0  9997", "line2": "2 34529  86.3644  37.3532 0004234 192.5106 167.5989 14.40610073880766"}}, "geometry": {"type": "Point", "coordinates": [-148.39250885719693, 55.26730935898562]}}, {"type": "Feature", "properties": {"norad_id": 34538, "name": "IRIDIUM 33 DEB", "group": "iridium-33-debris", "lat": -63.256459118482724, "lon": -0.3703381037062246, "alt_km": 739.7693134630144, "timestamp": "2025-12-09T07:41:33.595774+00:00", "meta": {"OBJECT_NAME": "IRIDIUM 33 DEB", "OBJECT_ID": "1997-051JF", "EPOCH": "2025-12-08T12:43:03.891360", "MEAN_MOTION": 14.42610474, "ECCENTRICITY": 0.00333253, "INCLINATION": 86.2772, "RA_OF_ASC_NODE": 7.3997, "ARG_OF_PERICENTER": 342.2911, "MEAN_ANOMALY": 171.1189, "EPHEMERIS_TYPE": 0, "CLASSIFICATION_TYPE": "U", "NORAD_CAT_ID": 34538, "ELEMENT_SET_NO": 999, "REV_AT_EPOCH": 87695, "BSTAR": 0.0013892431, "MEAN_MOTION_DOT": 4.663e-05, "MEAN_MOTION_DDOT": 0}, "tle": {"line1": "1 34538U 97051JF  25342.52990615  .00004663  00000+0  13892-2 0  9991", "line2": "2 34538  86.2772   7.3997 0033325 342.2911 171.1189 14.42610474876956"}}, "geometry": {"type": "Point", "coordinates": [-0.3703381037062246, -63.256459118482724]}}, {"type": "Feature", "properties": {"norad_id": 34540, "name": "IRIDIUM 33 DEB", "group": "iridium-33-debris", "lat": -45.967397990694636, "lon": -54.657208657696955, "alt_km": 660.1707115212594, "timestamp": "2025-12-09T07:41:33.595784+00:00", "meta": {"OBJECT_NAME": "IRIDIUM 33 DEB", "OBJECT_ID": "1997-051JH", "EPOCH": "2025-12-08T22:22:37.048800", "MEAN_MOTION": 14.75190663, "ECCENTRICITY": 0.00157528, "INCLINATION": 86.3106, "RA_OF_ASC_NODE": 309.347, "ARG_OF_PERICENTER": 172.6926, "MEAN_ANOMALY": 241.175, "EPHEMERIS_TYPE": 0, "CLASSIFICATION_TYPE": "U", "NORAD_CAT_ID": 34540, "ELEMENT_SET_NO": 999, "REV_AT_EPOCH": 88965, "BSTAR": 0.0020556195, "MEAN_MOTION_DOT": 0.0001395, "MEAN_MOTION_DDOT": 0}, "tle": {"line1": "1 34540U 97051JH  25342.93237325  .00013950  00000+0  20556-2 0  9995", "line2": "2 34540  86.3106 309.3470 0015752 172.6926 241.1750 14.75190663889659"}}, "geometry": {"type": "Point", "coordinates": [-54.657208657696955, -45.967397990694636]}}, {"type": "Feature", "properties": {"norad_id": 34648, "name": "IRIDIUM 33 DEB", "group": "iridium-33-debris", "lat": 15.626396901040724, "lon": 102.31502512851017, "alt_km": 964.1800637913202, "timestamp": "2025-12-09T07:41:33.595794+00:00", "meta": {"OBJECT_NAME": "IRIDIUM 33 DEB", "OBJECT_ID": "1997-051JZ", "EPOCH": "2025-12-08T20:41:39.004800", "MEAN_MOTION": 14.11300262, "ECCENTRICITY": 0.01839546, "INCLINATION": 86.3913, "RA_OF_ASC_NODE": 283.5113, "ARG_OF_PERICENTER": 310.9542, "MEAN_ANOMALY": 47.5843, "EPHEMERIS_TYPE": 0, "CLASSIFICATION_TYPE": "U", "NORAD_CAT_ID": 34648, "ELEMENT_SET_NO": 999, "REV_AT_EPOCH": 84906, "BSTAR": 0.013206348, "MEAN_MOTION_DOT": 0.00028062, "MEAN_MOTION_DDOT": 0}, "tle": {"line1": "1 34648U 97051JZ  25342.86225700  .00028062  00000+0  13206-1 0  9993", "line2": "2 34648  86.3913 283.5113 0183954 310.9542  47.5843 14.11300262849062"}}, "geometry": {"type": "Point", "coordinates": [102.31502512851017, 15.626396901040724]}}, {"type": "Feature", "properties": {"norad_id": 34651, "name": "IRIDIUM 33 DEB", "group": "iridium-33-debris", "lat": 46.130692420902825, "lon": 145.9068875369506, "alt_km": 902.0201307310817, "timestamp": "2025-12-09T07:41:33.595806+00:00", "meta": {"OBJECT_NAME": "IRIDIUM 33 DEB", "OBJECT_ID": "1997-051KC", "EPOCH": "2025-12-08T21:21:49.899168", "MEAN_MOTION": 14.25711995, "ECCENTRICITY": 0.01420016, "INCLINATION": 86.2851, "RA_OF_ASC_NODE": 142.2145, "ARG_OF_PERICENTER": 216.1504, "MEAN_ANOMALY": 143.0026, "EPHEMERIS_TYPE": 0, "CLASSIFICATION_TYPE": "U", "NORAD_CAT_ID": 34651, "ELEMENT_SET_NO": 999, "REV_AT_EPOCH": 85841, "BSTAR": 0.0042945842, "MEAN_MOTION_DOT": 0.00011352, "MEAN_MOTION_DDOT": 0}, "tle": {"line1": "1 34651U 97051KC  25342.89016087  .00011352  00000+0  42946-2 0  9994", "line2": "2 34651  86.2851 142.2145 0142001 216.1504 143.0026 14.25711995858413"}}, "geometry": {"type": "Point", "coordinates": [145.9068875369506, 46.130692420902825]}}, {"type": "Feature", "properties": {"norad_id": 34652, "name": "IRIDIUM 33 DEB", "group": "iridium-33-debris", "lat": 12.212028822930703, "lon": -17.68054491188501, "alt_km": 679.151453073222, "timestamp": "2025-12-09T07:41:33.595816+00:00", "meta": {"OBJECT_NAME": "IRIDIUM 33 DEB", "OBJECT_ID": "1997-051KD", "EPOCH": "2025-12-08T10:58:52.274208", "MEAN_MOTION": 14.61994532, "ECCENTRICITY": 0.00263276, "INCLINATION": 86.3309, "RA_OF_ASC_NODE": 341.9078, "ARG_OF_PERICENTER": 313.8102, "MEAN_ANOMALY": 199.1921, "EPHEMERIS_TYPE": 0, "CLASSIFICATION_TYPE": "U", "NORAD_CAT_ID": 34652, "ELEMENT_SET_NO": 999, "REV_AT_EPOCH": 88421, "BSTAR": 0.0013948529, "MEAN_MOTION_DOT": 7.048e-05, "MEAN_MOTION_DDOT": 0}, "tle": {"line1": "1 34652U 97051KD  25342.45754947  .00007048  00000+0  13949-2 0  9999", "line2": "2 34652  86.3309 341.9078 0026327 313.8102 199.1921 14.61994532884210"}}, "geometry": {"type": "Point", "coordinates": [-17.68054491188501, 12.212028822930703]}}, {"type": "Feature", "properties": {"norad_id": 34690, "name": "IRIDIUM 33 DEB", "group": "iridium-33-debris", "lat": -39.80090764456104, "lon": 35.45197490410607, "alt_km": 714.2378824223824, "timestamp": "2025-12-09T07:41:33.595826+00:00", "meta": {"OBJECT_NAME": "IRIDIUM 33 DEB", "OBJECT_ID": "1997-051KM", "EPOCH": "2025-12-08T22:13:37.657056", "MEAN_MOTION": 14.5507276, "ECCENTRICITY": 0.0011287, "INCLINATION": 86.378, "RA_OF_ASC_NODE": 38.6486, "ARG_OF_PERICENTER": 40.9093, "MEAN_ANOMALY": 14.7923, "EPHEMERIS_TYPE": 0, "CLASSIFICATION_TYPE": "U", "NORAD_CAT_ID": 34690, "ELEMENT_SET_NO": 999, "REV_AT_EPOCH": 88039, "BSTAR": 0.00058226382, "MEAN_MOTION_DOT": 2.533e-05, "MEAN_MOTION_DDOT": 0}, "tle": {"line1": "1 34690U 97051KM  25342.92613029  .00002533  00000+0  58226-3 0  9990", "line2": "2 34690  86.3780  38.6486 0011287  40.9093  14.7923 14.55072760880396"}}, "geometry": {"type": "Point", "coordinates": [35.45197490410607, -39.80090764456104]}}, {"type": "Feature", "properties": {"norad_id": 34693, "name": "IRIDIUM 33 DEB", "group": "iridium-33-debris", "lat": -21.32506397416349, "lon": 126.9668274224779, "alt_km": 499.559115743712, "timestamp": "2025-12-09T07:41:33.595837+00:00", "meta": {"OBJECT_NAME": "IRIDIUM 33 DEB", "OBJECT_ID": "1997-051KQ", "EPOCH": "2025-12-08T21:28:44.929344", "MEAN_MOTION": 15.26526055, "ECCENTRICITY": 0.0014837, "INCLINATION": 86.3061, "RA_OF_ASC_NODE": 305.7325, "ARG_OF_PERICENTER": 58.9741, "MEAN_ANOMALY": 325.0117, "EPHEMERIS_TYPE": 0, "CLASSIFICATION_TYPE": "U", "NORAD_CAT_ID": 34693, "ELEMENT_SET_NO": 999, "REV_AT_EPOCH": 88856, "BSTAR": 0.0052510679, "MEAN_MOTION_DOT": 0.00139885, "MEAN_MOTION_DDOT": 0}, "tle": {"line1": "1 34693U 97051KQ  25342.89496446  .00139885  00000+0  52511-2 0  9992", "line2": "2 34693  86.3061 305.7325 0014837  58.9741 325.0117 15.26526055888564"}}, "geometry": {"type": "Point", "coordinates": [126.9668274224779, -21.32506397416349]}}, {"type": "Feature", "properties": {"norad_id": 34696, "name": "IRIDIUM 33 DEB", "group": "iridium-33-debris", "lat": -22.296376570613184, "lon": 27.545494468195866, "alt_km": 732.0105557726902, "timestamp": "2025-12-09T07:41:33.595857+00:00", "meta": {"OBJECT_NAME": "IRIDIUM 33 DEB", "OBJECT_ID": "1997-051KT", "EPOCH": "2025-12-08T14:27:39.651264", "MEAN_MOTION": 14.64750758, "ECCENTRICITY": 0.0074318, "INCLINATION": 86.1849, "RA_OF_ASC_NODE": 29.4472, "ARG_OF_PERICENTER": 181.4638, "MEAN_ANOMALY": 332.3745, "EPHEMERIS_TYPE": 0, "CLASSIFICATION_TYPE": "U", "NORAD_CAT_ID": 34696, "ELEMENT_SET_NO": 999, "REV_AT_EPOCH": 86612, "BSTAR": 0.0061608, "MEAN_MOTION_DOT": 0.00034329, "MEAN_MOTION_DDOT": 0}, "tle": {"line1": "1 34696U 97051KT  25342.60254226  .00034329  00000+0  61608-2 0  9996", "line2": "2 34696  86.1849  29.4472 0074318 181.4638 332.3745 14.64750758866125"}}, "geometry": {"type": "Point", "coordinates": [27.545494468195866, -22.296376570613184]}}, {"type": "Feature", "properties": {"norad_id": 34765, "name": "IRIDIUM 33 DEB", "group": "iridium-33-debris", "lat": 11.182601189568729, "lon": -146.49630723068464, "alt_km": 752.3043542086698, "timestamp": "2025-12-09T07:41:33.595875+00:00", "meta": {"OBJECT_NAME": "IRIDIUM 33 DEB", "OBJECT_ID": "1997-051LJ", "EPOCH": "2025-12-08T21:29:33.152640", "MEAN_MOTION": 14.40449465, "ECCENTRICITY": 0.00150613, "INCLINATION": 86.3395, "RA_OF_ASC_NODE": 34.4111, "ARG_OF_PERICENTER": 224.9418, "MEAN_ANOMALY": 261.3628, "EPHEMERIS_TYPE": 0, "CLASSIFICATION_TYPE": "U", "NORAD_CAT_ID": 34765, "ELEMENT_SET_NO": 999, "REV_AT_EPOCH": 87558, "BSTAR": 0.00055464873, "MEAN_MOTION_DOT": 1.783e-05, "MEAN_MOTION_DDOT": 0}, "tle": {"line1": "1 34765U 97051LJ  25342.89552260  .00001783  00000+0  55465-3 0  9996", "line2": "2 34765  86.3395  34.4111 0015061 224.9418 261.3628 14.40449465875580"}}, "geometry": {"type": "Point", "coordinates": [-146.49630723068464, 11.182601189568729]}}]}